HST                     
1 20580U 90037B   26088.18957586  .00010418  00000+0  34286-3 0  9996
2 20580  28.4724 266.9491 0001756 354.8838   5.1740 15.29783443776305
POLAR                   
1 23802U 96013A   26087.93376163  .00000100  00000+0  00000+0 0  9994
2 23802  79.7748 227.9740 6389195 211.8112  85.1481  1.29845748143819
SWAS                    
1 25560U 98071A   26088.22290788  .00004888  00000+0  31461-3 0  9990
2 25560  69.8949  73.6420 0005655 343.1794  16.9182 15.09024693485204
CXO                     
1 25867U 99040B   26090.04236321  .00000780  00000+0  00000+0 0  9991
2 25867  54.9448 118.9145 7963177 310.7103   0.1107  0.37810947 17026
XMM-NEWTON              
1 25989U 99066A   26089.56466429  .00000026  00000+0  00000+0 0  9996
2 25989  64.8793 283.9987 4700711  66.3287   0.0213  0.50130809 22613
TERRA                   
1 25994U 99068A   26088.16684528  .00000472  00000+0  10519-3 0  9996
2 25994  97.9552 140.8535 0003577 110.9538 318.4372 14.61034969397924
CLUSTER II-FM7 (SAMBA)  
1 26410U 00041A   26087.80509244  .00002770  00000+0  00000+0 0  9997
2 26410 149.3509  37.9375 8950242 254.2071   0.2686  0.44808340 19947
CLUSTER II-FM8 (TANGO)  
1 26464U 00045B   26089.60558470  .00002560  00000+0  00000+0 0  9992
2 26464 149.6410  39.0046 8956751 255.1525   0.3931  0.44399863 19953
ODIN                    
1 26702U 01007A   26088.03979950  .00050216  00000+0  60814-3 0  9996
2 26702  97.4035 124.9021 0005014 100.8037 259.3784 15.60506037376855
TIMED                   
1 26998U 01055B   26088.18535032  .00001995  00000+0  18560-3 0  9992
2 26998  74.0690  36.0776 0002768 250.6198 109.4688 14.95087854318868
CORIOLIS                
1 27640U 03001A   26088.00744356  .00000156  00000+0  93835-4 0  9999
2 27640  98.7159  96.1089 0015157  84.5691 275.7214 14.19920213202841
SORCE                   
1 27651U 03004A   26088.16537570  .00004635  00000+0  34597-3 0  9994
2 27651  39.9926 358.0762 0017602 202.2129 157.7904 15.03244973259856
MOST                    
1 27843U 03031D   26087.88816942  .00000109  00000+0  70086-4 0  9994
2 27843  98.7079  96.7262 0010823 121.1901 239.0339 14.21304418179304
SCISAT 1                
1 27858U 03036A   26088.06551649  .00000796  00000+0  10651-3 0  9999
2 27858  73.9312 330.5268 0006171  46.8929 313.2762 14.81347967219586
SWIFT                   
1 28485U 04047A   26088.04681431  .00051925  00000+0  57796-3 0  9991
2 28485  20.5537  79.6941 0003093 272.0409  87.9682 15.61060012174291
HINODE (SOLAR-B)        
1 29479U 06041A   26088.05909660  .00000784  00000+0  14349-3 0  9993
2 29479  98.0608 105.3797 0017562 177.7727 182.3560 14.68504391 43110
SHIJIAN-6 02A (SJ-6 02A)
1 29505U 06046A   26088.18481257  .00008378  00000+0  43971-3 0  9999
2 29505  97.6468 128.6693 0004469  70.2268 289.9446 15.15985112 60147
