[{"OBJECT_NAME":"HST","OBJECT_ID":"1990-037B","EPOCH":"2026-03-29T04:32:59.354304","MEAN_MOTION":15.29783443,"ECCENTRICITY":0.0001756,"INCLINATION":28.4724,"RA_OF_ASC_NODE":266.9491,"ARG_OF_PERICENTER":354.8838,"MEAN_ANOMALY":5.174,"EPHEMERIS_TYPE":0,"CLASSIFICATION_TYPE":"U","NORAD_CAT_ID":20580,"ELEMENT_SET_NO":999,"REV_AT_EPOCH":77630,"BSTAR":0.00034286,"MEAN_MOTION_DOT":0.00010418,"MEAN_MOTION_DDOT":0},{"OBJECT_NAME":"POLAR","OBJECT_ID":"1996-013A","EPOCH":"2026-03-28T22:24:37.004832","MEAN_MOTION":1.29845748,"ECCENTRICITY":0.6389195,"INCLINATION":79.7748,"RA_OF_ASC_NODE":227.974,"ARG_OF_PERICENTER":211.8112,"MEAN_ANOMALY":85.1481,"EPHEMERIS_TYPE":0,"CLASSIFICATION_TYPE":"U","NORAD_CAT_ID":23802,"ELEMENT_SET_NO":999,"REV_AT_EPOCH":14381,"BSTAR":0,"MEAN_MOTION_DOT":1.0e-6,"MEAN_MOTION_DDOT":0},{"OBJECT_NAME":"SWAS","OBJECT_ID":"1998-071A","EPOCH":"2026-03-29T05:20:59.240832","MEAN_MOTION":15.09024693,"ECCENTRICITY":0.0005655,"INCLINATION":69.8949,"RA_OF_ASC_NODE":73.642,"ARG_OF_PERICENTER":343.1794,"MEAN_ANOMALY":16.9182,"EPHEMERIS_TYPE":0,"CLASSIFICATION_TYPE":"U","NORAD_CAT_ID":25560,"ELEMENT_SET_NO":999,"REV_AT_EPOCH":48520,"BSTAR":0.00031461,"MEAN_MOTION_DOT":4.888e-5,"MEAN_MOTION_DDOT":0},{"OBJECT_NAME":"CXO","OBJECT_ID":"1999-040B","EPOCH":"2026-03-31T01:01:00.181344","MEAN_MOTION":0.37810947,"ECCENTRICITY":0.7963177,"INCLINATION":54.9448,"RA_OF_ASC_NODE":118.9145,"ARG_OF_PERICENTER":310.7103,"MEAN_ANOMALY":0.1107,"EPHEMERIS_TYPE":0,"CLASSIFICATION_TYPE":"U","NORAD_CAT_ID":25867,"ELEMENT_SET_NO":999,"REV_AT_EPOCH":1702,"BSTAR":0,"MEAN_MOTION_DOT":7.8e-6,"MEAN_MOTION_DDOT":0},{"OBJECT_NAME":"XMM-NEWTON","OBJECT_ID":"1999-066A","EPOCH":"2026-03-30T13:33:06.994656","MEAN_MOTION":0.50130809,"ECCENTRICITY":0.4700711,"INCLINATION":64.8793,"RA_OF_ASC_NODE":283.9987,"ARG_OF_PERICENTER":66.3287,"MEAN_ANOMALY":0.0213,"EPHEMERIS_TYPE":0,"CLASSIFICATION_TYPE":"U","NORAD_CAT_ID":25989,"ELEMENT_SET_NO":999,"REV_AT_EPOCH":2261,"BSTAR":0,"MEAN_MOTION_DOT":2.6e-7,"MEAN_MOTION_DDOT":0},{"OBJECT_NAME":"TERRA","OBJECT_ID":"1999-068A","EPOCH":"2026-03-29T04:00:15.432192","MEAN_MOTION":14.61034969,"ECCENTRICITY":0.0003577,"INCLINATION":97.9552,"RA_OF_ASC_NODE":140.8535,"ARG_OF_PERICENTER":110.9538,"MEAN_ANOMALY":318.4372,"EPHEMERIS_TYPE":0,"CLASSIFICATION_TYPE":"U","NORAD_CAT_ID":25994,"ELEMENT_SET_NO":999,"REV_AT_EPOCH":39792,"BSTAR":0.00010519,"MEAN_MOTION_DOT":4.72e-6,"MEAN_MOTION_DDOT":0},{"OBJECT_NAME":"CLUSTER II-FM7 (SAMBA)","OBJECT_ID":"2000-041A","EPOCH":"2026-03-28T19:19:19.986816","MEAN_MOTION":0.4480834,"ECCENTRICITY":0.89502421,"INCLINATION":149.3509,"RA_OF_ASC_NODE":37.9375,"ARG_OF_PERICENTER":254.2071,"MEAN_ANOMALY":0.2686,"EPHEMERIS_TYPE":0,"CLASSIFICATION_TYPE":"U","NORAD_CAT_ID":26410,"ELEMENT_SET_NO":999,"REV_AT_EPOCH":1994,"BSTAR":0,"MEAN_MOTION_DOT":2.77e-5,"MEAN_MOTION_DDOT":0},{"OBJECT_NAME":"CLUSTER II-FM8 (TANGO)","OBJECT_ID":"2000-045B","EPOCH":"2026-03-30T14:32:02.518080","MEAN_MOTION":0.44399863,"ECCENTRICITY":0.89567511,"INCLINATION":149.641,"RA_OF_ASC_NODE":39.0046,"ARG_OF_PERICENTER":255.1525,"MEAN_ANOMALY":0.3931,"EPHEMERIS_TYPE":0,"CLASSIFICATION_TYPE":"U","NORAD_CAT_ID":26464,"ELEMENT_SET_NO":999,"REV_AT_EPOCH":1995,"BSTAR":0,"MEAN_MOTION_DOT":2.56e-5,"MEAN_MOTION_DDOT":0},{"OBJECT_NAME":"ODIN","OBJECT_ID":"2001-007A","EPOCH":"2026-03-29T00:57:18.676800","MEAN_MOTION":15.60506037,"ECCENTRICITY":0.0005014,"INCLINATION":97.4035,"RA_OF_ASC_NODE":124.9021,"ARG_OF_PERICENTER":100.8037,"MEAN_ANOMALY":259.3784,"EPHEMERIS_TYPE":0,"CLASSIFICATION_TYPE":"U","NORAD_CAT_ID":26702,"ELEMENT_SET_NO":999,"REV_AT_EPOCH":37685,"BSTAR":0.00060814,"MEAN_MOTION_DOT":0.00050216,"MEAN_MOTION_DDOT":0},{"OBJECT_NAME":"TIMED","OBJECT_ID":"2001-055B","EPOCH":"2026-03-29T04:26:54.267648","MEAN_MOTION":14.95087854,"ECCENTRICITY":0.0002768,"INCLINATION":74.069,"RA_OF_ASC_NODE":36.0776,"ARG_OF_PERICENTER":250.6198,"MEAN_ANOMALY":109.4688,"EPHEMERIS_TYPE":0,"CLASSIFICATION_TYPE":"U","NORAD_CAT_ID":26998,"ELEMENT_SET_NO":999,"REV_AT_EPOCH":31886,"BSTAR":0.0001856,"MEAN_MOTION_DOT":1.995e-5,"MEAN_MOTION_DDOT":0},{"OBJECT_NAME":"CORIOLIS","OBJECT_ID":"2003-001A","EPOCH":"2026-03-29T00:10:43.123584","MEAN_MOTION":14.19920213,"ECCENTRICITY":0.0015157,"INCLINATION":98.7159,"RA_OF_ASC_NODE":96.1089,"ARG_OF_PERICENTER":84.5691,"MEAN_ANOMALY":275.7214,"EPHEMERIS_TYPE":0,"CLASSIFICATION_TYPE":"U","NORAD_CAT_ID":27640,"ELEMENT_SET_NO":999,"REV_AT_EPOCH":20284,"BSTAR":9.3835e-5,"MEAN_MOTION_DOT":1.56e-6,"MEAN_MOTION_DDOT":0},{"OBJECT_NAME":"SORCE","OBJECT_ID":"2003-004A","EPOCH":"2026-03-29T03:58:08.460480","MEAN_MOTION":15.03244973,"ECCENTRICITY":0.0017602,"INCLINATION":39.9926,"RA_OF_ASC_NODE":358.0762,"ARG_OF_PERICENTER":202.2129,"MEAN_ANOMALY":157.7904,"EPHEMERIS_TYPE":0,"CLASSIFICATION_TYPE":"U","NORAD_CAT_ID":27651,"ELEMENT_SET_NO":999,"REV_AT_EPOCH":25985,"BSTAR":0.00034597,"MEAN_MOTION_DOT":4.635e-5,"MEAN_MOTION_DDOT":0},{"OBJECT_NAME":"MOST","OBJECT_ID":"2003-031D","EPOCH":"2026-03-28T21:18:57.837888","MEAN_MOTION":14.21304418,"ECCENTRICITY":0.0010823,"INCLINATION":98.7079,"RA_OF_ASC_NODE":96.7262,"ARG_OF_PERICENTER":121.1901,"MEAN_ANOMALY":239.0339,"EPHEMERIS_TYPE":0,"CLASSIFICATION_TYPE":"U","NORAD_CAT_ID":27843,"ELEMENT_SET_NO":999,"REV_AT_EPOCH":17930,"BSTAR":7.0086e-5,"MEAN_MOTION_DOT":1.09e-6,"MEAN_MOTION_DDOT":0},{"OBJECT_NAME":"SCISAT 1","OBJECT_ID":"2003-036A","EPOCH":"2026-03-29T01:34:20.624736","MEAN_MOTION":14.81347967,"ECCENTRICITY":0.0006171,"INCLINATION":73.9312,"RA_OF_ASC_NODE":330.5268,"ARG_OF_PERICENTER":46.8929,"MEAN_ANOMALY":313.2762,"EPHEMERIS_TYPE":0,"CLASSIFICATION_TYPE":"U","NORAD_CAT_ID":27858,"ELEMENT_SET_NO":999,"REV_AT_EPOCH":21958,"BSTAR":0.00010651,"MEAN_MOTION_DOT":7.96e-6,"MEAN_MOTION_DDOT":0},{"OBJECT_NAME":"SWIFT","OBJECT_ID":"2004-047A","EPOCH":"2026-03-29T01:07:24.756384","MEAN_MOTION":15.61060012,"ECCENTRICITY":0.0003093,"INCLINATION":20.5537,"RA_OF_ASC_NODE":79.6941,"ARG_OF_PERICENTER":272.0409,"MEAN_ANOMALY":87.9682,"EPHEMERIS_TYPE":0,"CLASSIFICATION_TYPE":"U","NORAD_CAT_ID":28485,"ELEMENT_SET_NO":999,"REV_AT_EPOCH":17429,"BSTAR":0.00057796,"MEAN_MOTION_DOT":0.00051925,"MEAN_MOTION_DDOT":0},{"OBJECT_NAME":"HINODE (SOLAR-B)","OBJECT_ID":"2006-041A","EPOCH":"2026-03-29T01:25:05.946240","MEAN_MOTION":14.68504391,"ECCENTRICITY":0.0017562,"INCLINATION":98.0608,"RA_OF_ASC_NODE":105.3797,"ARG_OF_PERICENTER":177.7727,"MEAN_ANOMALY":182.356,"EPHEMERIS_TYPE":0,"CLASSIFICATION_TYPE":"U","NORAD_CAT_ID":29479,"ELEMENT_SET_NO":999,"REV_AT_EPOCH":4311,"BSTAR":0.00014349,"MEAN_MOTION_DOT":7.84e-6,"MEAN_MOTION_DDOT":0},{"OBJECT_NAME":"SHIJIAN-6 02A (SJ-6 02A)","OBJECT_ID":"2006-046A","EPOCH":"2026-03-29T04:26:07.806048","MEAN_MOTION":15.15985112,"ECCENTRICITY":0.0004469,"INCLINATION":97.6468,"RA_OF_ASC_NODE":128.6693,"ARG_OF_PERICENTER":70.2268,"MEAN_ANOMALY":289.9446,"EPHEMERIS_TYPE":0,"CLASSIFICATION_TYPE":"U","NORAD_CAT_ID":29505,"ELEMENT_SET_NO":999,"REV_AT_EPOCH":6014,"BSTAR":0.00043971,"MEAN_MOTION_DOT":8.378e-5,"MEAN_MOTION_DDOT":0}]
